OBJECT_NAME,OBJECT_ID,EPOCH,MEAN_MOTION,ECCENTRICITY,INCLINATION,RA_OF_ASC_NODE,ARG_OF_PERICENTER,MEAN_ANOMALY,EPHEMERIS_TYPE,CLASSIFICATION_TYPE,NORAD_CAT_ID,ELEMENT_SET_NO,REV_AT_EPOCH,BSTAR,MEAN_MOTION_DOT,MEAN_MOTION_DDOT
METHANESAT,2024-043D,2026-07-08T21:36:48.435840,14.98206645,.00089304,97.8459,321.0547,298.3049,61.7271,0,U,59101,999,12790,.12919594E-3,.1474E-4,0
